OBJECT_NAME,OBJECT_ID,EPOCH,MEAN_MOTION,ECCENTRICITY,INCLINATION,RA_OF_ASC_NODE,ARG_OF_PERICENTER,MEAN_ANOMALY,EPHEMERIS_TYPE,CLASSIFICATION_TYPE,NORAD_CAT_ID,ELEMENT_SET_NO,REV_AT_EPOCH,BSTAR,MEAN_MOTION_DOT,MEAN_MOTION_DDOT
QIANFAN-172,2026-124H,2026-07-02T02:44:41.438400,14.19640765,.00038596,88.9986,0.3388,126.8541,233.3004,0,U,69389,999,393,.55045637E-4,.131E-5,0
QIANFAN-173,2026-124J,2026-07-02T04:09:25.860672,14.20511971,.00039897,88.9986,0.3291,118.9418,241.2173,0,U,69390,999,394,.37886507E-4,.96E-6,0
QIANFAN-174,2026-124K,2026-07-02T02:15:56.066688,14.15785907,.00070134,88.9981,0.3358,119.9044,240.2842,0,U,69391,999,393,-.96450473E+0,-.1750896E-1,0
QIANFAN-175,2026-124L,2026-07-02T03:52:00.574464,14.21342189,.00050416,88.9986,0.3272,134.1402,226.0205,0,U,69392,999,394,.46353954E-4,.116E-5,0
QIANFAN-176,2026-124M,2026-07-01T22:36:08.705088,14.16781998,.00011276,88.9981,0.3503,333.1690,26.9440,0,U,69393,999,391,-.97265124E+0,-.1814986E-1,0
QIANFAN-177,2026-124N,2026-07-02T03:26:05.753760,14.22732890,.00048538,88.9986,0.3245,116.7394,243.4295,0,U,69394,999,394,.41686E-4,.108E-5,0
QIANFAN-178,2026-124P,2026-07-02T03:33:54.389952,14.22276544,.00042864,88.9985,0.3251,126.1579,234.0009,0,U,69395,999,394,.35908275E-4,.94E-6,0
QIANFAN-179,2026-124Q,2026-07-02T03:18:32.113152,14.23099552,.00042419,88.9985,0.3235,122.9367,237.2233,0,U,69396,999,394,.35828654E-4,.95E-6,0
QIANFAN-180,2026-124R,2026-07-02T03:10:07.747968,14.23621378,.00046115,88.9986,0.3228,130.6401,229.5193,0,U,69397,999,394,.50912133E-4,.131E-5,0
QIANFAN-181,2026-124S,2026-07-02T00:22:42.074400,14.10979595,.00081403,88.9981,0.3613,145.2635,214.9083,0,U,69398,999,391,-.98957279E+0,-.1651851E-1,0
QIANFAN-182,2026-124T,2026-07-02T03:03:23.215392,14.18740713,.00036019,88.9986,0.3408,119.1413,241.0137,0,U,69399,999,393,.35529606E-4,.88E-6,0
QIANFAN-183,2026-125A,2026-07-02T05:53:43.467936,14.16469707,.00157849,88.9955,278.7451,128.7559,231.5042,0,U,69401,999,383,.21276596E-3,.438E-5,0
QIANFAN-184,2026-125B,2026-07-02T07:21:22.902048,14.16889855,.00165936,88.9956,278.7359,123.0746,237.2039,0,U,69402,999,384,.20656415E-3,.429E-5,0
QIANFAN-185,2026-125C,2026-07-02T07:32:51.735552,14.16094663,.00174506,88.9956,278.7370,123.4730,236.8129,0,U,69403,999,384,.21374109E-3,.437E-5,0
QIANFAN-186,2026-125D,2026-07-02T07:06:38.502144,14.17440833,.00158961,88.9956,278.7345,124.4516,235.8177,0,U,69404,999,384,.21228037E-3,.445E-5,0
QIANFAN-187,2026-125E,2026-07-02T06:50:24.916704,14.18351641,.00164252,88.9956,278.7326,125.4363,234.8362,0,U,69405,999,384,.22095391E-3,.47E-5,0
QIANFAN-188,2026-125F,2026-07-02T06:30:23.110848,14.19443929,.00164429,88.9955,278.7303,128.7928,231.4734,0,U,69406,999,384,.21033795E-3,.457E-5,0
QIANFAN-189,2026-125G,2026-07-02T06:39:46.246176,14.18762841,.00156627,88.9956,278.7315,126.4075,233.8562,0,U,69407,999,384,.21150436E-3,.454E-5,0
QIANFAN-190,2026-125H,2026-07-02T06:31:13.425024,14.19225890,.00164579,88.9956,278.7307,127.8558,232.4124,0,U,69408,999,384,.21187036E-3,.459E-5,0
QIANFAN-191,2026-125J,2026-07-02T02:47:36.070080,14.15085573,.0014123,88.9951,278.7444,122.6646,237.5906,0,U,69409,999,382,-.85334547E+0,-.1544405E-1,0
QIANFAN-192,2026-125K,2026-07-02T06:04:44.781312,14.20523414,.00167182,88.9956,278.7279,127.0537,233.2185,0,U,69410,999,384,.21422827E-3,.475E-5,0
QIANFAN-193,2026-125L,2026-07-02T05:54:07.318656,14.20966009,.00166011,88.9956,278.7266,127.4106,232.8599,0,U,69411,999,384,.21388115E-3,.478E-5,0
QIANFAN-194,2026-125M,2026-07-02T07:27:19.671840,14.21407832,.0015929,88.9956,278.7177,130.7028,229.5550,0,U,69412,999,384,.21361363E-3,.481E-5,0
QIANFAN-195,2026-125N,2026-07-02T07:19:45.298560,14.21805270,.00171224,88.9956,278.7170,129.3339,230.9372,0,U,69413,999,385,.21644493E-3,.491E-5,0
QIANFAN-196,2026-125P,2026-07-02T07:10:39.386208,14.22300346,.0017244,88.9956,278.7161,129.7102,230.5613,0,U,69414,999,385,.21381431E-3,.49E-5,0
QIANFAN-197,2026-125Q,2026-07-02T07:03:18.264960,14.22744781,.00154904,88.9956,278.7153,127.0427,233.2184,0,U,69415,999,384,.21070238E-3,.487E-5,0
QIANFAN-198,2026-125R,2026-07-02T07:13:05.613888,14.22071471,.00157981,88.9956,278.7163,126.4821,233.7828,0,U,69416,999,385,.21422532E-3,.489E-5,0
QIANFAN-199,2026-125S,2026-07-02T06:48:59.196672,14.23635175,.00175294,88.9955,278.7136,127.2194,233.0600,0,U,69417,999,385,.20951289E-3,.493E-5,0
QIANFAN-200,2026-125T,2026-07-02T06:21:23.089248,14.19644903,.00165319,88.9956,278.7295,125.6285,234.6448,0,U,69418,999,384,.21797812E-3,.475E-5,0
