QIANFAN-172             
1 69389U 26124H   26183.11436850  .00000131  00000+0  55046-4 0  9996
2 69389  88.9986   0.3388 0003859 126.8541 233.3004 14.19640765  3932
QIANFAN-173             
1 69390U 26124J   26183.17321598  .00000096  00000+0  37887-4 0  9999
2 69390  88.9986   0.3291 0003989 118.9418 241.2173 14.20511971  3940
QIANFAN-174             
1 69391U 26124K   26183.09439892 -.01750896  00000+0 -96450+0 0  9997
2 69391  88.9981   0.3358 0007013 119.9044 240.2842 14.15785907  3935
QIANFAN-175             
1 69392U 26124L   26183.16111776  .00000116  00000+0  46354-4 0  9997
2 69392  88.9986   0.3272 0005041 134.1402 226.0205 14.21342189  3946
QIANFAN-176             
1 69393U 26124M   26182.94176742 -.01814986  00000+0 -97265+0 0  9990
2 69393  88.9981   0.3503 0001127 333.1690  26.9440 14.16781998  3914
QIANFAN-177             
1 69394U 26124N   26183.14312215  .00000108  00000+0  41686-4 0  9992
2 69394  88.9986   0.3245 0004853 116.7394 243.4295 14.22732890  3949
QIANFAN-178             
1 69395U 26124P   26183.14854618  .00000094  00000+0  35908-4 0  9995
2 69395  88.9985   0.3251 0004286 126.1579 234.0009 14.22276544  3944
QIANFAN-179             
1 69396U 26124Q   26183.13787168  .00000095  00000+0  35829-4 0  9993
2 69396  88.9985   0.3235 0004241 122.9367 237.2233 14.23099552  3944
QIANFAN-180             
1 69397U 26124R   26183.13203412  .00000131  00000+0  50912-4 0  9990
2 69397  88.9986   0.3228 0004611 130.6401 229.5193 14.23621378  3940
QIANFAN-181             
1 69398U 26124S   26183.01576475 -.01651851  00000+0 -98957+0 0  9990
2 69398  88.9981   0.3613 0008140 145.2635 214.9083 14.10979595  3912
QIANFAN-182             
1 69399U 26124T   26183.12735203  .00000088  00000+0  35530-4 0  9999
2 69399  88.9986   0.3408 0003601 119.1413 241.0137 14.18740713  3930
QIANFAN-183             
1 69401U 26125A   26183.24564199  .00000438  00000+0  21277-3 0  9992
2 69401  88.9955 278.7451 0015784 128.7559 231.5042 14.16469707  3838
QIANFAN-184             
1 69402U 26125B   26183.30651507  .00000429  00000+0  20656-3 0  9990
2 69402  88.9956 278.7359 0016593 123.0746 237.2039 14.16889855  3842
QIANFAN-185             
1 69403U 26125C   26183.31448768  .00000437  00000+0  21374-3 0  9992
2 69403  88.9956 278.7370 0017450 123.4730 236.8129 14.16094663  3846
QIANFAN-186             
1 69404U 26125D   26183.29627896  .00000445  00000+0  21228-3 0  9998
2 69404  88.9956 278.7345 0015896 124.4516 235.8177 14.17440833  3841
QIANFAN-187             
1 69405U 26125E   26183.28501061  .00000470  00000+0  22095-3 0  9994
2 69405  88.9956 278.7326 0016425 125.4363 234.8362 14.18351641  3845
QIANFAN-188             
1 69406U 26125F   26183.27110082  .00000457  00000+0  21034-3 0  9990
2 69406  88.9955 278.7303 0016442 128.7928 231.4734 14.19443929  3840
QIANFAN-189             
1 69407U 26125G   26183.27761859  .00000454  00000+0  21150-3 0  9991
2 69407  88.9956 278.7315 0015662 126.4075 233.8562 14.18762841  3847
QIANFAN-190             
1 69408U 26125H   26183.27168316  .00000459  00000+0  21187-3 0  9996
2 69408  88.9956 278.7307 0016457 127.8558 232.4124 14.19225890  3841
QIANFAN-191             
1 69409U 26125J   26183.11638970 -.01544405  00000+0 -85335+0 0  9996
2 69409  88.9951 278.7444 0014123 122.6646 237.5906 14.15085573  3828
QIANFAN-192             
1 69410U 26125K   26183.25329608  .00000475  00000+0  21423-3 0  9991
2 69410  88.9956 278.7279 0016718 127.0537 233.2185 14.20523414  3842
QIANFAN-193             
1 69411U 26125L   26183.24591804  .00000478  00000+0  21388-3 0  9993
2 69411  88.9956 278.7266 0016601 127.4106 232.8599 14.20966009  3841
QIANFAN-194             
1 69412U 26125M   26183.31064435  .00000481  00000+0  21361-3 0  9992
2 69412  88.9956 278.7177 0015929 130.7028 229.5550 14.21407832  3840
QIANFAN-195             
1 69413U 26125N   26183.30538540  .00000491  00000+0  21644-3 0  9990
2 69413  88.9956 278.7170 0017122 129.3339 230.9372 14.21805270  3857
QIANFAN-196             
1 69414U 26125P   26183.29906697  .00000490  00000+0  21381-3 0  9998
2 69414  88.9956 278.7161 0017244 129.7102 230.5613 14.22300346  3854
QIANFAN-197             
1 69415U 26125Q   26183.29396140  .00000487  00000+0  21070-3 0  9996
2 69415  88.9956 278.7153 0015490 127.0427 233.2184 14.22744781  3845
QIANFAN-198             
1 69416U 26125R   26183.30075942  .00000489  00000+0  21423-3 0  9997
2 69416  88.9956 278.7163 0015798 126.4821 233.7828 14.22071471  3859
QIANFAN-199             
1 69417U 26125S   26183.28401848  .00000493  00000+0  20951-3 0  9993
2 69417  88.9955 278.7136 0017529 127.2194 233.0600 14.23635175  3854
QIANFAN-200             
1 69418U 26125T   26183.26485057  .00000475  00000+0  21798-3 0  9996
2 69418  88.9956 278.7295 0016531 125.6285 234.6448 14.19644903  3847
